{"type": "FeatureCollection", "features": [ {"type": "Feature", "properties": {"norad_id": 34375, "name": "IRIDIUM 33 DEB", "group": "iridium-33-debris", "lat": -28.554023887767702, "lon": 177.76544553325627, "alt_km": 887.6111151247751, "timestamp": "2025-12-20T03:42:47.779040+00:00", "meta": {"OBJECT_NAME": "IRIDIUM 33 DEB", "OBJECT_ID": "1997-051FT", "EPOCH": "2025-12-19T12:41:12.374016", "MEAN_MOTION": 14.1800419, "ECCENTRICITY": 0.0103655, "INCLINATION": 86.432, "RA_OF_ASC_NODE": 179.9636, "ARG_OF_PERICENTER": 105.4895, "MEAN_ANOMALY": 272.7356, "EPHEMERIS_TYPE": 0, "CLASSIFICATION_TYPE": "U", "NORAD_CAT_ID": 34375, "ELEMENT_SET_NO": 999, "REV_AT_EPOCH": 86808, "BSTAR": 0.00031892, "MEAN_MOTION_DOT": 7.08e-06, "MEAN_MOTION_DDOT": 0}, "tle": {"line1": "1 34375U 97051FT  25353.52861544  .00000708  00000+0  31892-3 0  9997", "line2": "2 34375  86.4320 179.9636 0103655 105.4895 272.7356 14.18004190868080"}}, "geometry": {"type": "Point", "coordinates": [177.76544553325627, -28.554023887767702]}}, {"type": "Feature", "properties": {"norad_id": 34376, "name": "IRIDIUM 33 DEB", "group": "iridium-33-debris", "lat": 84.62854181028263, "lon": 139.68303352757871, "alt_km": 663.9483153898991, "timestamp": "2025-12-20T03:42:47.779051+00:00", "meta": {"OBJECT_NAME": "IRIDIUM 33 DEB", "OBJECT_ID": "1997-051FU", "EPOCH": "2025-12-19T19:04:33.085632", "MEAN_MOTION": 14.62657013, "ECCENTRICITY": 0.0028006, "INCLINATION": 86.2977, "RA_OF_ASC_NODE": 3.368, "ARG_OF_PERICENTER": 143.3641, "MEAN_ANOMALY": 216.9493, "EPHEMERIS_TYPE": 0, "CLASSIFICATION_TYPE": "U", "NORAD_CAT_ID": 34376, "ELEMENT_SET_NO": 999, "REV_AT_EPOCH": 88110, "BSTAR": 0.00093405, "MEAN_MOTION_DOT": 4.799e-05, "MEAN_MOTION_DDOT": 0}, "tle": {"line1": "1 34376U 97051FU  25353.79482738  .00004799  00000+0  93405-3 0  9993", "line2": "2 34376  86.2977   3.3680 0028006 143.3641 216.9493 14.62657013881109"}}, "geometry": {"type": "Point", "coordinates": [139.68303352757871, 84.62854181028263]}}, {"type": "Feature", "properties": {"norad_id": 34486, "name": "IRIDIUM 33 DEB", "group": "iridium-33-debris", "lat": 60.0899984126776, "lon": -177.6937621141887, "alt_km": 564.7621231180665, "timestamp": "2025-12-20T03:42:47.779061+00:00", "meta": {"OBJECT_NAME": "IRIDIUM 33 DEB", "OBJECT_ID": "1997-051GB", "EPOCH": "2025-12-19T11:48:44.838432", "MEAN_MOTION": 14.96085447, "ECCENTRICITY": 0.0013897, "INCLINATION": 86.393, "RA_OF_ASC_NODE": 8.9076, "ARG_OF_PERICENTER": 92.9331, "MEAN_ANOMALY": 60.6575, "EPHEMERIS_TYPE": 0, "CLASSIFICATION_TYPE": "U", "NORAD_CAT_ID": 34486, "ELEMENT_SET_NO": 999, "REV_AT_EPOCH": 89087, "BSTAR": 0.0015014, "MEAN_MOTION_DOT": 0.00016952, "MEAN_MOTION_DDOT": 0}, "tle": {"line1": "1 34486U 97051GB  25353.49218563  .00016952  00000+0  15014-2 0  9998", "line2": "2 34486  86.3930   8.9076 0013897  92.9331  60.6575 14.96085447890870"}}, "geometry": {"type": "Point", "coordinates": [-177.6937621141887, 60.0899984126776]}}, {"type": "Feature", "properties": {"norad_id": 34487, "name": "IRIDIUM 33 DEB", "group": "iridium-33-debris", "lat": 10.541239709476754, "lon": -171.496939531528, "alt_km": 739.181590404628, "timestamp": "2025-12-20T03:42:47.779071+00:00", "meta": {"OBJECT_NAME": "IRIDIUM 33 DEB", "OBJECT_ID": "1997-051GC", "EPOCH": "2025-12-18T07:45:56.041056", "MEAN_MOTION": 14.43223269, "ECCENTRICITY": 0.00331222, "INCLINATION": 86.3431, "RA_OF_ASC_NODE": 9.9731, "ARG_OF_PERICENTER": 110.9986, "MEAN_ANOMALY": 270.0816, "EPHEMERIS_TYPE": 0, "CLASSIFICATION_TYPE": "U", "NORAD_CAT_ID": 34487, "ELEMENT_SET_NO": 999, "REV_AT_EPOCH": 88329, "BSTAR": 0.00015301486, "MEAN_MOTION_DOT": 5.38e-06, "MEAN_MOTION_DDOT": 0}, "tle": {"line1": "1 34487U 97051GC  25352.32356529  .00000538  00000+0  15301-3 0  9998", "line2": "2 34487  86.3431   9.9731 0033122 110.9986 270.0816 14.43223269883297"}}, "geometry": {"type": "Point", "coordinates": [-171.496939531528, 10.541239709476754]}}, {"type": "Feature", "properties": {"norad_id": 34488, "name": "IRIDIUM 33 DEB", "group": "iridium-33-debris", "lat": -60.75123101469249, "lon": -64.4592417479977, "alt_km": 480.5291844483272, "timestamp": "2025-12-20T03:42:47.779082+00:00", "meta": {"OBJECT_NAME": "IRIDIUM 33 DEB", "OBJECT_ID": "1997-051GD", "EPOCH": "2025-12-18T20:36:21.699936", "MEAN_MOTION": 15.30898743, "ECCENTRICITY": 0.00115528, "INCLINATION": 86.3236, "RA_OF_ASC_NODE": 302.7776, "ARG_OF_PERICENTER": 41.1127, "MEAN_ANOMALY": 319.099, "EPHEMERIS_TYPE": 0, "CLASSIFICATION_TYPE": "U", "NORAD_CAT_ID": 34488, "ELEMENT_SET_NO": 999, "REV_AT_EPOCH": 89333, "BSTAR": 0.0035214405, "MEAN_MOTION_DOT": 0.0010661, "MEAN_MOTION_DDOT": 0}, "tle": {"line1": "1 34488U 97051GD  25352.85858449  .00106610  00000+0  35214-2 0  9997", "line2": "2 34488  86.3236 302.7776 0011552  41.1127 319.0990 15.30898743893334"}}, "geometry": {"type": "Point", "coordinates": [-64.4592417479977, -60.75123101469249]}}, {"type": "Feature", "properties": {"norad_id": 34492, "name": "IRIDIUM 33 DEB", "group": "iridium-33-debris", "lat": 27.30660801405524, "lon": 149.80493321839967, "alt_km": 738.0958124743975, "timestamp": "2025-12-20T03:42:47.779093+00:00", "meta": {"OBJECT_NAME": "IRIDIUM 33 DEB", "OBJECT_ID": "1997-051GH", "EPOCH": "2025-12-19T10:45:18.347328", "MEAN_MOTION": 14.25846982, "ECCENTRICITY": 0.0188646, "INCLINATION": 86.4707, "RA_OF_ASC_NODE": 331.9164, "ARG_OF_PERICENTER": 216.3823, "MEAN_ANOMALY": 273.3437, "EPHEMERIS_TYPE": 0, "CLASSIFICATION_TYPE": "U", "NORAD_CAT_ID": 34492, "ELEMENT_SET_NO": 999, "REV_AT_EPOCH": 85154, "BSTAR": 0.0022012, "MEAN_MOTION_DOT": 6.332e-05, "MEAN_MOTION_DDOT": 0}, "tle": {"line1": "1 34492U 97051GH  25353.44812902  .00006332  00000+0  22012-2 0  9994", "line2": "2 34492  86.4707 331.9164 0188646 216.3823 273.3437 14.25846982851542"}}, "geometry": {"type": "Point", "coordinates": [149.80493321839967, 27.30660801405524]}}, {"type": "Feature", "properties": {"norad_id": 34497, "name": "IRIDIUM 33 DEB", "group": "iridium-33-debris", "lat": 77.32630428931502, "lon": 66.0627167687232, "alt_km": 822.9730579695151, "timestamp": "2025-12-20T03:42:47.779103+00:00", "meta": {"OBJECT_NAME": "IRIDIUM 33 DEB", "OBJECT_ID": "1997-051GN", "EPOCH": "2025-12-19T10:35:53.025216", "MEAN_MOTION": 14.2747197, "ECCENTRICITY": 0.0078309, "INCLINATION": 86.2774, "RA_OF_ASC_NODE": 49.5385, "ARG_OF_PERICENTER": 317.619, "MEAN_ANOMALY": 57.0969, "EPHEMERIS_TYPE": 0, "CLASSIFICATION_TYPE": "U", "NORAD_CAT_ID": 34497, "ELEMENT_SET_NO": 999, "REV_AT_EPOCH": 86979, "BSTAR": 0.00044435, "MEAN_MOTION_DOT": 1.145e-05, "MEAN_MOTION_DDOT": 0}, "tle": {"line1": "1 34497U 97051GN  25353.44158594  .00001145  00000+0  44435-3 0  9990", "line2": "2 34497  86.2774  49.5385 0078309 317.6190  57.0969 14.27471970869798"}}, "geometry": {"type": "Point", "coordinates": [66.0627167687232, 77.32630428931502]}}, {"type": "Feature", "properties": {"norad_id": 34508, "name": "IRIDIUM 33 DEB", "group": "iridium-33-debris", "lat": 11.455485167993318, "lon": -81.23688820051457, "alt_km": 720.1179518901235, "timestamp": "2025-12-20T03:42:47.779114+00:00", "meta": {"OBJECT_NAME": "IRIDIUM 33 DEB", "OBJECT_ID": "1997-051GZ", "EPOCH": "2025-12-19T06:54:06.441120", "MEAN_MOTION": 14.38473954, "ECCENTRICITY": 0.0066492, "INCLINATION": 86.3709, "RA_OF_ASC_NODE": 99.8676, "ARG_OF_PERICENTER": 151.959, "MEAN_ANOMALY": 208.5216, "EPHEMERIS_TYPE": 0, "CLASSIFICATION_TYPE": "U", "NORAD_CAT_ID": 34508, "ELEMENT_SET_NO": 999, "REV_AT_EPOCH": 87403, "BSTAR": 0.00082341, "MEAN_MOTION_DOT": 2.599e-05, "MEAN_MOTION_DDOT": 0}, "tle": {"line1": "1 34508U 97051GZ  25353.28757455  .00002599  00000+0  82341-3 0  9998", "line2": "2 34508  86.3709  99.8676 0066492 151.9590 208.5216 14.38473954874031"}}, "geometry": {"type": "Point", "coordinates": [-81.23688820051457, 11.455485167993318]}}, {"type": "Feature", "properties": {"norad_id": 34521, "name": "IRIDIUM 33 DEB", "group": "iridium-33-debris", "lat": -68.98705113964725, "lon": 17.79515404820216, "alt_km": 690.0427491618711, "timestamp": "2025-12-20T03:42:47.779124+00:00", "meta": {"OBJECT_NAME": "IRIDIUM 33 DEB", "OBJECT_ID": "1997-051HN", "EPOCH": "2025-12-19T03:24:49.282848", "MEAN_MOTION": 14.63417651, "ECCENTRICITY": 0.0002349, "INCLINATION": 86.3791, "RA_OF_ASC_NODE": 27.7294, "ARG_OF_PERICENTER": 185.2812, "MEAN_ANOMALY": 174.8375, "EPHEMERIS_TYPE": 0, "CLASSIFICATION_TYPE": "U", "NORAD_CAT_ID": 34521, "ELEMENT_SET_NO": 999, "REV_AT_EPOCH": 88566, "BSTAR": 0.00061239026, "MEAN_MOTION_DOT": 3.188e-05, "MEAN_MOTION_DDOT": 0}, "tle": {"line1": "1 34521U 97051HN  25353.14223707  .00003188  00000+0  61239-3 0  9994", "line2": "2 34521  86.3791  27.7294 0002349 185.2812 174.8375 14.63417651885663"}}, "geometry": {"type": "Point", "coordinates": [17.79515404820216, -68.98705113964725]}}, {"type": "Feature", "properties": {"norad_id": 34525, "name": "IRIDIUM 33 DEB", "group": "iridium-33-debris", "lat": -75.82554639364695, "lon": 29.1305821863977, "alt_km": 760.4276353970699, "timestamp": "2025-12-20T03:42:47.779134+00:00", "meta": {"OBJECT_NAME": "IRIDIUM 33 DEB", "OBJECT_ID": "1997-051HS", "EPOCH": "2025-12-19T03:14:12.830208", "MEAN_MOTION": 14.42920186, "ECCENTRICITY": 0.00065078, "INCLINATION": 86.3722, "RA_OF_ASC_NODE": 44.1141, "ARG_OF_PERICENTER": 80.5154, "MEAN_ANOMALY": 309.013, "EPHEMERIS_TYPE": 0, "CLASSIFICATION_TYPE": "U", "NORAD_CAT_ID": 34525, "ELEMENT_SET_NO": 999, "REV_AT_EPOCH": 88180, "BSTAR": 0.00026538201, "MEAN_MOTION_DOT": 9.07e-06, "MEAN_MOTION_DDOT": 0}, "tle": {"line1": "1 34525U 97051HS  25353.13487072  .00000907  00000+0  26538-3 0  9993", "line2": "2 34525  86.3722  44.1141 0006507  80.5154 309.0130 14.42920186881803"}}, "geometry": {"type": "Point", "coordinates": [29.1305821863977, -75.82554639364695]}}]}